{"type": "FeatureCollection", "features": [ {"type": "Feature", "properties": {"norad_id": 67110, "name": "STARLINK-35781", "group": "last-30-days", "lat": 25.107279032618045, "lon": -80.3142715223038, "alt_km": 299.45721347884046, "timestamp": "2025-12-23T16:57:11.065189+00:00", "meta": {"OBJECT_NAME": "STARLINK-35781", "OBJECT_ID": "2025-299J", "EPOCH": "2025-12-23T06:00:00.999648", "MEAN_MOTION": 15.91662318, "ECCENTRICITY": 0.00020517, "INCLINATION": 42.9981, "RA_OF_ASC_NODE": 252.3277, "ARG_OF_PERICENTER": 268.271, "MEAN_ANOMALY": 33.5119, "EPHEMERIS_TYPE": 0, "CLASSIFICATION_TYPE": "U", "NORAD_CAT_ID": 67110, "ELEMENT_SET_NO": 999, "REV_AT_EPOCH": 245, "BSTAR": -0.0059426018, "MEAN_MOTION_DOT": -0.01995087, "MEAN_MOTION_DDOT": 0.001071655}, "tle": {"line1": "1 67110U 25299J   25357.25001157 -.01995087  10717-2 -59426-2 0  9992", "line2": "2 67110  42.9981 252.3277 0002051 268.2710  33.5119 15.91662318  2457"}}, "geometry": {"type": "Point", "coordinates": [-80.3142715223038, 25.107279032618045]}}, {"type": "Feature", "properties": {"norad_id": 67111, "name": "STARLINK-35875", "group": "last-30-days", "lat": 24.098089877925748, "lon": -81.81441229322147, "alt_km": 299.3649169871278, "timestamp": "2025-12-23T16:57:11.065207+00:00", "meta": {"OBJECT_NAME": "STARLINK-35875", "OBJECT_ID": "2025-299K", "EPOCH": "2025-12-23T06:00:00.999648", "MEAN_MOTION": 15.9165367, "ECCENTRICITY": 0.00018753, "INCLINATION": 42.9982, "RA_OF_ASC_NODE": 252.3322, "ARG_OF_PERICENTER": 273.6933, "MEAN_ANOMALY": 26.401, "EPHEMERIS_TYPE": 0, "CLASSIFICATION_TYPE": "U", "NORAD_CAT_ID": 67111, "ELEMENT_SET_NO": 999, "REV_AT_EPOCH": 239, "BSTAR": -0.0059278727, "MEAN_MOTION_DOT": -0.01989259, "MEAN_MOTION_DDOT": 0.0010657213}, "tle": {"line1": "1 67111U 25299K   25357.25001157 -.01989259  10657-2 -59279-2 0  9996", "line2": "2 67111  42.9982 252.3322 0001875 273.6933  26.4010 15.91653670  2395"}}, "geometry": {"type": "Point", "coordinates": [-81.81441229322147, 24.098089877925748]}}, {"type": "Feature", "properties": {"norad_id": 67112, "name": "STARLINK-35906", "group": "last-30-days", "lat": 25.928677148637796, "lon": -79.05732510010571, "alt_km": 299.29555827155764, "timestamp": "2025-12-23T16:57:11.065216+00:00", "meta": {"OBJECT_NAME": "STARLINK-35906", "OBJECT_ID": "2025-299L", "EPOCH": "2025-12-23T06:00:00.999648", "MEAN_MOTION": 15.91677521, "ECCENTRICITY": 0.00020106, "INCLINATION": 42.9982, "RA_OF_ASC_NODE": 252.3243, "ARG_OF_PERICENTER": 268.2889, "MEAN_ANOMALY": 34.8713, "EPHEMERIS_TYPE": 0, "CLASSIFICATION_TYPE": "U", "NORAD_CAT_ID": 67112, "ELEMENT_SET_NO": 999, "REV_AT_EPOCH": 239, "BSTAR": -0.0059375764, "MEAN_MOTION_DOT": -0.01994957, "MEAN_MOTION_DDOT": 0.0010716864}, "tle": {"line1": "1 67112U 25299L   25357.25001157 -.01994957  10717-2 -59376-2 0  9993", "line2": "2 67112  42.9982 252.3243 0002010 268.2889  34.8713 15.91677521  2394"}}, "geometry": {"type": "Point", "coordinates": [-79.05732510010571, 25.928677148637796]}}, {"type": "Feature", "properties": {"norad_id": 67113, "name": "STARLINK-35789", "group": "last-30-days", "lat": 26.80173394538073, "lon": -77.68249323095044, "alt_km": 299.0113447200447, "timestamp": "2025-12-23T16:57:11.065226+00:00", "meta": {"OBJECT_NAME": "STARLINK-35789", "OBJECT_ID": "2025-299M", "EPOCH": "2025-12-23T06:00:00.999648", "MEAN_MOTION": 15.91693017, "ECCENTRICITY": 0.00016098, "INCLINATION": 42.998, "RA_OF_ASC_NODE": 252.3204, "ARG_OF_PERICENTER": 266.8703, "MEAN_ANOMALY": 37.786, "EPHEMERIS_TYPE": 0, "CLASSIFICATION_TYPE": "U", "NORAD_CAT_ID": 67113, "ELEMENT_SET_NO": 999, "REV_AT_EPOCH": 239, "BSTAR": -0.0059582445, "MEAN_MOTION_DOT": -0.02003265, "MEAN_MOTION_DDOT": 0.0010802097}, "tle": {"line1": "1 67113U 25299M   25357.25001157 -.02003265  10802-2 -59582-2 0  9992", "line2": "2 67113  42.9980 252.3204 0001609 266.8703  37.7860 15.91693017  2395"}}, "geometry": {"type": "Point", "coordinates": [-77.68249323095044, 26.80173394538073]}}, {"type": "Feature", "properties": {"norad_id": 67114, "name": "STARLINK-36180", "group": "last-30-days", "lat": 27.826848808298415, "lon": -76.01239973200832, "alt_km": 299.0516170274077, "timestamp": "2025-12-23T16:57:11.065236+00:00", "meta": {"OBJECT_NAME": "STARLINK-36180", "OBJECT_ID": "2025-299N", "EPOCH": "2025-12-23T06:00:00.999648", "MEAN_MOTION": 15.91697809, "ECCENTRICITY": 0.00017824, "INCLINATION": 42.9982, "RA_OF_ASC_NODE": 252.3161, "ARG_OF_PERICENTER": 262.5998, "MEAN_ANOMALY": 43.8556, "EPHEMERIS_TYPE": 0, "CLASSIFICATION_TYPE": "U", "NORAD_CAT_ID": 67114, "ELEMENT_SET_NO": 999, "REV_AT_EPOCH": 250, "BSTAR": -0.0059631279, "MEAN_MOTION_DOT": -0.02005433, "MEAN_MOTION_DDOT": 0.0010824492}, "tle": {"line1": "1 67114U 25299N   25357.25001157 -.02005433  10824-2 -59631-2 0  9991", "line2": "2 67114  42.9982 252.3161 0001782 262.5998  43.8556 15.91697809  2507"}}, "geometry": {"type": "Point", "coordinates": [-76.01239973200832, 27.826848808298415]}}, {"type": "Feature", "properties": {"norad_id": 67115, "name": "STARLINK-35892", "group": "last-30-days", "lat": 28.687450098373542, "lon": -74.55889597999787, "alt_km": 298.68976200102315, "timestamp": "2025-12-23T16:57:11.065246+00:00", "meta": {"OBJECT_NAME": "STARLINK-35892", "OBJECT_ID": "2025-299P", "EPOCH": "2025-12-23T06:00:00.999648", "MEAN_MOTION": 15.91701827, "ECCENTRICITY": 0.00018917, "INCLINATION": 42.9982, "RA_OF_ASC_NODE": 252.3121, "ARG_OF_PERICENTER": 273.4071, "MEAN_ANOMALY": 34.571, "EPHEMERIS_TYPE": 0, "CLASSIFICATION_TYPE": "U", "NORAD_CAT_ID": 67115, "ELEMENT_SET_NO": 999, "REV_AT_EPOCH": 239, "BSTAR": -0.0059187563, "MEAN_MOTION_DOT": -0.01991146, "MEAN_MOTION_DDOT": 0.0010681212}, "tle": {"line1": "1 67115U 25299P   25357.25001157 -.01991146  10681-2 -59188-2 0  9994", "line2": "2 67115  42.9982 252.3121 0001891 273.4071  34.5710 15.91701827  2390"}}, "geometry": {"type": "Point", "coordinates": [-74.55889597999787, 28.687450098373542]}}, {"type": "Feature", "properties": {"norad_id": 67116, "name": "STARLINK-35738", "group": "last-30-days", "lat": 29.706619932979883, "lon": -72.76935266000332, "alt_km": 298.6645382021479, "timestamp": "2025-12-23T16:57:11.065256+00:00", "meta": {"OBJECT_NAME": "STARLINK-35738", "OBJECT_ID": "2025-299Q", "EPOCH": "2025-12-23T06:00:00.999648", "MEAN_MOTION": 15.91710424, "ECCENTRICITY": 0.00018754, "INCLINATION": 42.9982, "RA_OF_ASC_NODE": 252.3075, "ARG_OF_PERICENTER": 269.2641, "MEAN_ANOMALY": 40.5767, "EPHEMERIS_TYPE": 0, "CLASSIFICATION_TYPE": "U", "NORAD_CAT_ID": 67116, "ELEMENT_SET_NO": 999, "REV_AT_EPOCH": 239, "BSTAR": -0.0059503692, "MEAN_MOTION_DOT": -0.02002521, "MEAN_MOTION_DDOT": 0.0010796465}, "tle": {"line1": "1 67116U 25299Q   25357.25001157 -.02002521  10796-2 -59504-2 0  9995", "line2": "2 67116  42.9982 252.3075 0001875 269.2641  40.5767 15.91710424  2399"}}, "geometry": {"type": "Point", "coordinates": [-72.76935266000332, 29.706619932979883]}}, {"type": "Feature", "properties": {"norad_id": 67117, "name": "STARLINK-35674", "group": "last-30-days", "lat": 30.59395064559408, "lon": -71.14474300539715, "alt_km": 298.59714356272343, "timestamp": "2025-12-23T16:57:11.065266+00:00", "meta": {"OBJECT_NAME": "STARLINK-35674", "OBJECT_ID": "2025-299R", "EPOCH": "2025-12-23T06:00:00.999648", "MEAN_MOTION": 15.9171434, "ECCENTRICITY": 0.00018421, "INCLINATION": 42.9984, "RA_OF_ASC_NODE": 252.3033, "ARG_OF_PERICENTER": 265.9632, "MEAN_ANOMALY": 45.5354, "EPHEMERIS_TYPE": 0, "CLASSIFICATION_TYPE": "U", "NORAD_CAT_ID": 67117, "ELEMENT_SET_NO": 999, "REV_AT_EPOCH": 229, "BSTAR": -0.0059463913, "MEAN_MOTION_DOT": -0.02001589, "MEAN_MOTION_DDOT": 0.00107875}, "tle": {"line1": "1 67117U 25299R   25357.25001157 -.02001589  10788-2 -59464-2 0  9995", "line2": "2 67117  42.9984 252.3033 0001842 265.9632  45.5354 15.91714340  2290"}}, "geometry": {"type": "Point", "coordinates": [-71.14474300539715, 30.59395064559408]}}, {"type": "Feature", "properties": {"norad_id": 67118, "name": "STARLINK-35701", "group": "last-30-days", "lat": 31.489235063693815, "lon": -69.43390400572407, "alt_km": 298.4209984669651, "timestamp": "2025-12-23T16:57:11.065276+00:00", "meta": {"OBJECT_NAME": "STARLINK-35701", "OBJECT_ID": "2025-299S", "EPOCH": "2025-12-23T06:00:00.999648", "MEAN_MOTION": 15.91714756, "ECCENTRICITY": 0.00020471, "INCLINATION": 42.9983, "RA_OF_ASC_NODE": 252.2991, "ARG_OF_PERICENTER": 271.8705, "MEAN_ANOMALY": 41.333, "EPHEMERIS_TYPE": 0, "CLASSIFICATION_TYPE": "U", "NORAD_CAT_ID": 67118, "ELEMENT_SET_NO": 999, "REV_AT_EPOCH": 245, "BSTAR": -0.0059056479, "MEAN_MOTION_DOT": -0.01988165, "MEAN_MOTION_DDOT": 0.0010652731}, "tle": {"line1": "1 67118U 25299S   25357.25001157 -.01988165  10653-2 -59056-2 0  9997", "line2": "2 67118  42.9983 252.2991 0002047 271.8705  41.3330 15.91714756  2454"}}, "geometry": {"type": "Point", "coordinates": [-69.43390400572407, 31.489235063693815]}}, {"type": "Feature", "properties": {"norad_id": 67119, "name": "STARLINK-36179", "group": "last-30-days", "lat": 32.81026501767682, "lon": -66.759859335903, "alt_km": 298.1334751242857, "timestamp": "2025-12-23T16:57:11.065288+00:00", "meta": {"OBJECT_NAME": "STARLINK-36179", "OBJECT_ID": "2025-299T", "EPOCH": "2025-12-23T06:00:00.999648", "MEAN_MOTION": 15.9174734, "ECCENTRICITY": 0.00020419, "INCLINATION": 42.9981, "RA_OF_ASC_NODE": 252.2923, "ARG_OF_PERICENTER": 273.0932, "MEAN_ANOMALY": 42.6788, "EPHEMERIS_TYPE": 0, "CLASSIFICATION_TYPE": "U", "NORAD_CAT_ID": 67119, "ELEMENT_SET_NO": 999, "REV_AT_EPOCH": 250, "BSTAR": -0.0058900068, "MEAN_MOTION_DOT": -0.01986276, "MEAN_MOTION_DDOT": 0.0010637273}, "tle": {"line1": "1 67119U 25299T   25357.25001157 -.01986276  10637-2 -58900-2 0  9998", "line2": "2 67119  42.9981 252.2923 0002041 273.0932  42.6788 15.91747340  2500"}}, "geometry": {"type": "Point", "coordinates": [-66.759859335903, 32.81026501767682]}}]}